[{"OBJECT_NAME":"STARLINK-5591","OBJECT_ID":"2023-028AG","EPOCH":"2026-03-09T19:46:08.982048","MEAN_MOTION":14.98331041,"ECCENTRICITY":0.00030516,"INCLINATION":69.9995,"RA_OF_ASC_NODE":224.0962,"ARG_OF_PERICENTER":271.1011,"MEAN_ANOMALY":88.9798,"EPHEMERIS_TYPE":0,"CLASSIFICATION_TYPE":"U","NORAD_CAT_ID":55771,"ELEMENT_SET_NO":999,"REV_AT_EPOCH":16655,"BSTAR":0.00012836784,"MEAN_MOTION_DOT":1.439e-5,"MEAN_MOTION_DDOT":0},{"OBJECT_NAME":"VOLGA DEB","OBJECT_ID":"2019-039F","EPOCH":"2026-03-07T20:53:51.094464","MEAN_MOTION":14.96146064,"ECCENTRICITY":0.00076084,"INCLINATION":97.5888,"RA_OF_ASC_NODE":96.0833,"ARG_OF_PERICENTER":210.1052,"MEAN_ANOMALY":149.9734,"EPHEMERIS_TYPE":0,"CLASSIFICATION_TYPE":"U","NORAD_CAT_ID":44621,"ELEMENT_SET_NO":999,"REV_AT_EPOCH":36129,"BSTAR":0.00038662057,"MEAN_MOTION_DOT":4.299e-5,"MEAN_MOTION_DDOT":0}]
